sat_config_name,tle_name,norad_id,horizons_id,epoch_tle,t_obs,delta_t_min,incl_deg,raan_deg,ecc,argp_deg,M_deg,mean_motion_rev_per_day,x_sgp4,y_sgp4,z_sgp4,vx_sgp4,vy_sgp4,vz_sgp4,x_true,y_true,z_true,vx_true,vy_true,vz_true,err_x,err_y,err_z,err_vx,err_vy,err_vz,err_norm,horizons_ok,line1,line2
CHANDRA,CXO,25867,-151,2025-11-29T09:28:09.054336+00:00,2025-11-28T16:28:09.054336+00:00,-1020.0,52.7584,123.0489,0.8164697,310.7158,0.2585,0.37803381,21948.821212700062,-110032.47333643759,53901.81082697218,0.4396827025670187,0.6318683487482045,-0.9372021861094786,21959.84409455066,-110027.16786570384,53884.784143720135,0.43900060577474953,0.6326344186796954,-0.9375168256168066,-11.022881850596605,-5.305470733743277,17.026683252042858,0.0006820967922691601,-0.0007660699314908648,0.0003146395073280184,20.965683546314803,True,1 25867U 99040B   25333.39454924  .00000722  00000+0  00000+0 0  9995,2 25867  52.7584 123.0489 8164697 310.7158   0.2585  0.37803381 16565
CHANDRA,CXO,25867,-151,2025-11-29T09:28:09.054336+00:00,2025-11-28T16:33:09.054336+00:00,-1015.0,52.7584,123.0489,0.8164697,310.7158,0.2585,0.37803381,22080.431685056526,-109841.76360933823,53619.996013934346,0.4383140749597935,0.6387091719328065,-0.9405493689920724,22091.33921474668,-109836.35205261866,53603.027061654415,0.43763062952971404,0.6394762779656082,-0.9408642517994558,-10.907529690153751,-5.411556719569489,16.968952279930818,0.0006834454300794768,-0.0007671060328017232,0.0003148828073833432,20.88550912832322,True,1 25867U 99040B   25333.39454924  .00000722  00000+0  00000+0 0  9995,2 25867  52.7584 123.0489 8164697 310.7158   0.2585  0.37803381 16565
CHANDRA,CXO,25867,-151,2025-11-29T09:28:09.054336+00:00,2025-11-28T16:38:09.054336+00:00,-1010.0,52.7584,123.0489,0.8164697,310.7158,0.2585,0.37803381,22211.629154902224,-109648.99602550361,53337.17557318267,0.43692832305757534,0.6455824366568903,-0.9439006045895195,22222.420762784706,-109643.47885405832,53320.26518466222,0.4362435392459543,0.6463505606612939,-0.9442157184803676,-10.791607882481912,-5.517171445288113,16.910388520453125,0.0006847838116210148,-0.0007681240044036253,0.00031511389084804,20.80526907681372,True,1 25867U 99040B   25333.39454924  .00000722  00000+0  00000+0 0  9995,2 25867  52.7584 123.0489 8164697 310.7158   0.2585  0.37803381 16565
CHANDRA,CXO,25867,-151,2025-11-29T09:28:09.054336+00:00,2025-11-28T16:43:09.054336+00:00,-1005.0,52.7584,123.0489,0.8164697,310.7158,0.2585,0.37803381,22342.40845127502,-109454.16078394605,53053.348281400424,0.43552522628375356,0.6524885490649787,-0.9472559367987937,22353.08360663329,-109448.53843019006,53036.49721794292,0.434839114046772,0.6532576745816634,-0.947571270369609,-10.675155358268967,-5.622353755985387,16.851063457506825,0.000686112236981562,-0.0007691255166847322,0.00031533357081525715,20.725060755750356,True,1 25867U 99040B   25333.39454924  .00000722  00000+0  00000+0 0  9995,2 25867  52.7584 123.0489 8164697 310.7158   0.2585  0.37803381 16565
CHANDRA,CXO,25867,-151,2025-11-29T09:28:09.054336+00:00,2025-11-28T16:48:09.054336+00:00,-1000.0,52.7584,123.0489,0.8164697,310.7158,0.2585,0.37803381,22472.764336459084,-109257.2479606585,52768.512901972696,0.43410455968005923,0.6594279218620182,-0.9506154093175607,22483.322477199865,-109251.52092250861,52751.72200564876,0.43341712942481714,0.6601980303963229,-0.9509309501757957,-10.5581407407808,-5.727038149881992,16.790896323938796,0.0006874302552420941,-0.0007701085343047032,0.0003155408582349306,20.6447935623876,True,1 25867U 99040B   25333.39454924  .00000722  00000+0  00000+0 0  9995,2 25867  52.7584 123.0489 8164697 310.7158   0.2585  0.37803381 16565
CHANDRA,CXO,25867,-151,2025-11-29T09:28:09.054336+00:00,2025-11-28T16:53:09.054336+00:00,-995.0,52.7584,123.0489,0.8164697,310.7158,0.2585,0.37803381,22602.69150451932,-109058.24750677113,52482.668185254435,0.43266609380219545,0.6664009744511111,-0.953979065626105,22613.132089814597,-109052.41626952146,52465.93826486885,0.4319773558237854,0.6671720482461116,-0.9542948017393137,-10.440585295276833,-5.831237249672995,16.72992038558732,0.00068873797841007,-0.0007710737950005209,0.00031573611320867556,20.564517628138397,True,1 25867U 99040B   25333.39454924  .00000722  00000+0  00000+0 0  9995,2 25867  52.7584 123.0489 8164697 310.7158   0.2585  0.37803381 16565
CHANDRA,CXO,25867,-151,2025-11-29T09:28:09.054336+00:00,2025-11-28T16:58:09.054336+00:00,-990.0,52.7584,123.0489,0.8164697,310.7158,0.2585,0.37803381,22732.1845799919,-108857.14924647933,52195.81286858791,0.4312095946106719,0.6734081330814827,-0.9573469489714691,22742.507090187064,-108851.21428166522,52179.14469893366,0.4305195590823852,0.6741801551388131,-0.9576628686722234,-10.322510195164796,-5.934964814106934,16.66816965425096,0.0006900355282866699,-0.0007720220573304015,0.00031591970075428577,20.48428431009639,True,1 25867U 99040B   25333.39454924  .00000722  00000+0  00000+0 0  9995,2 25867  52.7584 123.0489 8164697 310.7158   0.2585  0.37803381 16565
CHANDRA,CXO,25867,-151,2025-11-29T09:28:09.054336+00:00,2025-11-28T17:03:09.054336+00:00,-985.0,52.7584,123.0489,0.8164697,310.7158,0.2585,0.37803381,22861.238116453624,-108653.94287497253,51907.94567637599,0.4297348233590342,0.6804498309989115,-0.960719102350209,22871.44200103645,-108647.90472171735,51891.34011388242,0.42904350092161164,0.6812227822501864,-0.961035192978737,-10.203884582824685,-6.038153255183715,16.60556249356887,0.0006913224374225369,-0.000772951251274856,0.0003160906285279985,20.404001103717725,True,1 25867U 99040B   25333.39454924  .00000722  00000+0  00000+0 0  9995,2 25867  52.7584 123.0489 8164697 310.7158   0.2585  0.37803381 16565
CHANDRA,CXO,25867,-151,2025-11-29T09:28:09.054336+00:00,2025-11-28T17:08:09.054336+00:00,-980.0,52.7584,123.0489,0.8164697,310.7158,0.2585,0.37803381,22989.846595121802,-108448.61795630498,51619.06532015957,0.42824153647834334,0.687526508600439,-0.9640955684902762,22999.931342039345,-108442.47711297648,51602.523148811975,0.4275489374538727,0.6883003716733216,-0.9644118182023377,-10.084746917542361,-6.140843328495976,16.542171347595286,0.0006925990244706637,-0.0007738630728826301,0.000316249712061456,20.323767122982296,True,1 25867U 99040B   25333.39454924  .00000722  00000+0  00000+0 0  9995,2 25867  52.7584 123.0489 8164697 310.7158   0.2585  0.37803381 16565
CHANDRA,CXO,25867,-151,2025-11-29T09:28:09.054336+00:00,2025-11-28T17:13:09.054336+00:00,-975.0,52.7584,123.0489,0.8164697,310.7158,0.2585,0.37803381,23118.004423378774,-108241.16392122708,51329.17049870193,0.4267294854584282,0.6946386135930939,-0.9674763898320177,23127.969490094438,-108234.92095513704,51312.69258461294,0.42603562064730355,0.6954133690237574,-0.9677927857898353,-9.965066715663852,-6.242966090037953,16.47791408899502,0.0006938648111246559,-0.0007747554306635207,0.00031639595781762786,20.243488656190067,True,1 25867U 99040B   25333.39454924  .00000722  00000+0  00000+0 0  9995,2 25867  52.7584 123.0489 8164697 310.7158   0.2585  0.37803381 16565
CHANDRA,CXO,25867,-151,2025-11-29T09:28:09.054336+00:00,2025-11-28T17:18:09.054336+00:00,-970.0,52.7584,123.0489,0.8164697,310.7158,0.2585,0.37803381,23245.705933281013,-108031.57006496399,51038.25989807695,0.42519841672540537,0.7017866011570146,-0.970861608508245,23255.5508155706,-108025.225501829,51021.847034420454,0.42450329660119124,0.7025622311902495,-0.9711781386915393,-9.844882289587986,-6.344563134989585,16.412863656492846,0.0006951201242141325,-0.0007756300332348864,0.0003165301832943612,20.16326566001489,True,1 25867U 99040B   25333.39454924  .00000722  00000+0  00000+0 0  9995,2 25867  52.7584 123.0489 8164697 310.7158   0.2585  0.37803381 16565
CHANDRA,CXO,25867,-151,2025-11-29T09:28:09.054336+00:00,2025-11-28T17:23:09.054336+00:00,-965.0,52.7584,123.0489,0.8164697,310.7158,0.2585,0.37803381,23372.9453799889,-107819.82554495428,50746.33219176546,0.4236480715157569,0.7089709341128069,-0.9742512663233139,23382.669543397,-107813.37998105572,50729.98525468092,0.4229517070437609,0.7097474188704948,-0.9745679177130174,-9.72416340810014,-6.445563898552791,16.346937084541423,0.0006963644719960027,-0.0007764847576878786,0.0003166513897034928,20.083002763623682,True,1 25867U 99040B   25333.39454924  .00000722  00000+0  00000+0 0  9995,2 25867  52.7584 123.0489 8164697 310.7158   0.2585  0.37803381 16565
CHANDRA,CXO,25867,-151,2025-11-29T09:28:09.054336+00:00,2025-11-28T17:28:09.054336+00:00,-960.0,52.7584,123.0489,0.8164697,310.7158,0.2585,0.37803381,23499.71694022333,-107605.9193785235,50453.386040756915,0.4220781857461254,0.7161920830937768,-0.9776454047311904,23509.31988857195,-107599.37336754505,50437.105832731395,0.4213805875554333,0.716969404425222,-0.9779621651308577,-9.602948348619975,-6.546010978447157,16.28020802552055,0.0006975981906920947,-0.0007773213314451466,0.00031676039966721525,20.002801055613126,True,1 25867U 99040B   25333.39454924  .00000722  00000+0  00000+0 0  9995,2 25867  52.7584 123.0489 8164697 310.7158   0.2585  0.37803381 16565
CHANDRA,CXO,25867,-151,2025-11-29T09:28:09.054336+00:00,2025-11-28T17:33:09.054336+00:00,-955.0,52.7584,123.0489,0.8164697,310.7158,0.2585,0.37803381,23626.01471064985,-107389.84044051103,50159.420093657536,0.42048848987931997,0.7234505267227468,-0.9810440648124436,23635.495917914366,-107383.19460809087,50143.207500621524,0.4197896691028481,0.7242286643312607,-0.9813609210259978,-9.481207264514524,-6.645832420166698,16.21259303601255,0.0006988207764718757,-0.0007781376085138625,0.00031685621355426186,19.922563908819175,True,1 25867U 99040B   25333.39454924  .00000722  00000+0  00000+0 0  9995,2 25867  52.7584 123.0489 8164697 310.7158   0.2585  0.37803381 16565
